EUTELSAT 7A             
1 28187U 04008A   25223.45808576  .00000104  00000+0  00000+0 0  9998
2 28187   5.0375  75.7213 0001141 100.9214 169.2244  1.00271153 78246
EUTELSAT 174A           
1 28924U 05052A   25223.47405897  .00000009  00000+0  00000+0 0  9992
2 28924   3.4283  80.4058 0006163  60.8164 163.5800  1.00271042 49220
EUTELSAT HOTBIRD 13B    
1 29270U 06032A   25223.54697308  .00000156  00000+0  00000+0 0  9997
2 29270   0.8559  85.7615 0004030  52.6746  51.7975  1.00271073 44203
EUTELSAT HOTBIRD 13C    
1 33459U 08065A   25223.39518993 -.00000100  00000+0  00000+0 0  9994
2 33459   2.1480  82.9218 0003620  73.0441 293.8981  1.00271286 44242
EUTELSAT 36B            
1 36101U 09065A   25223.12217293  .00000113  00000+0  00000+0 0  9995
2 36101   0.0516   6.7559 0005795 135.2963 272.2478  1.00273087 57598
EUTELSAT KA-SAT 9A      
1 37258U 10069A   25223.54220640  .00000062  00000+0  00000+0 0  9994
2 37258   0.0594 305.0107 0004365 181.5030  37.9202  1.00270626 40907
EUTELSAT 7 WEST A       
1 37816U 11051A   25223.39614326 -.00000059  00000+0  00000+0 0  9994
2 37816   0.0651 341.8481 0005283 173.1340 300.4267  1.00270813 50789
EUTELSAT 16A            
1 37836U 11057A   25223.54359307  .00000105  00000+0  00000+0 0  9995
2 37836   0.0649 354.8319 0005447 143.9407  33.1464  1.00270774  4226
